NORAD_CAT_ID,OBJECT_NAME,OBJECT_TYPE,EPOCH,MEAN_MOTION,ECCENTRICITY,INCLINATION,RA_OF_ASC_NODE,ARG_OF_PERICENTER,MEAN_ANOMALY,BSTAR,MEAN_MOTION_DOT,MEAN_MOTION_DDOT,TLE_LINE0,TLE_LINE1,TLE_LINE2,SEMIMAJOR_AXIS,PERIOD,APOGEE,PERIGEE,DECAYED
52645.0,STARLINK-3973,PAYLOAD,2024-07-16 22:14:04,15.08855337,0.0001364,53.2163,76.1603,95.5682,264.5466,-5.0335e-06,-3.68e-06,0.0,0 STARLINK-3973,1 52645U 22052AZ  24198.92643898 -.00000368  00000-0 -50335-5 0  9996,2 52645  53.2163  76.1603 0001364  95.5682 264.5466 15.08855337120434,6917.834,95.437,540.642,538.755,0.0
52645.0,STARLINK-3973,PAYLOAD,2024-07-17 01:24:49,15.08862794,0.0001324,53.2169,75.5593,106.2453,253.8685,5.9593e-05,6.61e-06,0.0,0 STARLINK-3973,1 52645U 22052AZ  24199.05891013  .00000661  00000-0  59593-4 0  9993,2 52645  53.2169  75.5593 0001324 106.2453 253.8685 15.08862794120836,6917.811,95.436,540.592,538.76,0.0
52645.0,STARLINK-3973,PAYLOAD,2024-07-17 09:21:47,15.08840093,0.0001618,53.217,74.0772,89.1633,270.9544,-0.00014348,-2.571e-05,0.0,0 STARLINK-3973,1 52645U 22052AZ  24199.39013065 -.00002571  00000-0 -14348-3 0  9995,2 52645  53.2170  74.0772 0001618  89.1633 270.9544 15.08840093120883,6917.88,95.438,540.864,538.626,0.0
52645.0,STARLINK-3973,PAYLOAD,2024-07-17 20:29:29,15.08828897,0.0001468,53.2182,71.9937,95.5673,264.5486,3.9444e-05,3.4e-06,0.0,0 STARLINK-3973,1 52645U 22052AZ  24199.85381705  .00000340  00000-0  39444-4 0  9990,2 52645  53.2182  71.9937 0001468  95.5673 264.5486 15.08828897120953,6917.914,95.438,540.795,538.764,0.0
52645.0,STARLINK-3973,PAYLOAD,2024-07-17 22:04:52,15.08833693,0.0001495,53.2173,71.6994,89.1992,270.9171,-2.0694e-05,-6.17e-06,0.0,0 STARLINK-3973,1 52645U 22052AZ  24199.92005689 -.00000617  00000-0 -20694-4 0  9998,2 52645  53.2173  71.6994 0001495  89.1992 270.9171 15.08833693120587,6917.9,95.438,540.799,538.73,0.0
52645.0,STARLINK-3973,PAYLOAD,2024-07-18 20:20:16,15.08842472,0.0001581,53.2177,67.5326,106.5713,253.5453,2.2056e-05,6.3e-07,0.0,0 STARLINK-3973,1 52645U 22052AZ  24200.84741223  .00000063  00000-0  22056-4 0  9990,2 52645  53.2177  67.5326 0001581 106.5713 253.5453 15.08842472121109,6917.873,95.437,540.832,538.644,0.0
52645.0,STARLINK-3973,PAYLOAD,2024-07-18 21:55:39,15.08850599,0.0001491,53.218,67.2348,109.6402,250.4751,-3.7529e-05,-8.85e-06,0.0,0 STARLINK-3973,1 52645U 22052AZ  24200.91364852 -.00000885  00000-0 -37529-4 0  9992,2 52645  53.2180  67.2348 0001491 109.6402 250.4751 15.08850599120737,6917.848,95.437,540.744,538.682,0.0
52645.0,STARLINK-3973,PAYLOAD,2024-07-19 21:46:26,15.08835232,0.0001168,53.218,62.7858,82.694,277.4184,0.00028829,4.303e-05,0.0,0 STARLINK-3973,1 52645U 22052AZ  24201.90725402  .00004303  00000-0  28829-3 0  9993,2 52645  53.2180  62.7858 0001168  82.6940 277.4184 15.08835232121266,6917.895,95.438,540.568,538.952,0.0
52645.0,STARLINK-3973,PAYLOAD,2024-07-20 07:18:45,15.08842739,0.0001435,53.2166,61.0026,140.1976,219.9122,0.00011901,1.607e-05,0.0,0 STARLINK-3973,1 52645U 22052AZ  24202.30469078  .00001607  00000-0  11901-3 0  9999,2 52645  53.2166  61.0026 0001435 140.1976 219.9122 15.08842739120942,6917.872,95.437,540.73,538.744,0.0
52645.0,STARLINK-3973,PAYLOAD,2024-07-20 21:37:14,15.08840716,0.0001027,53.2158,58.3219,108.6725,251.4379,-6.2421e-06,-3.87e-06,0.0,0 STARLINK-3973,1 52645U 22052AZ  24202.90085861 -.00000387  00000-0 -62421-5 0  9990,2 52645  53.2158  58.3219 0001027 108.6725 251.4379 15.08840716121415,6917.878,95.438,540.454,539.033,0.0
52645.0,STARLINK-3973,PAYLOAD,2024-07-21 07:09:33,15.08833166,0.0001291,53.2165,56.5324,92.5477,267.5663,-3.5282e-05,-8.49e-06,0.0,0 STARLINK-3973,1 52645U 22052AZ  24203.29829995 -.00000849  00000-0 -35282-4 0  9994,2 52645  53.2165  56.5324 0001291  92.5477 267.5663 15.08833166121097,6917.901,95.438,540.659,538.873,0.0
52645.0,STARLINK-3973,PAYLOAD,2024-07-21 21:28:01,15.08841913,0.0001241,53.2174,53.8567,86.8305,273.2829,-3.3292e-05,-8.18e-06,0.0,0 STARLINK-3973,1 52645U 22052AZ  24203.89446353 -.00000818  00000-0 -33292-4 0  9998,2 52645  53.2174  53.8567 0001241  86.8305 273.2829 15.08841913121184,6917.875,95.437,540.598,538.881,0.0
52645.0,STARLINK-3973,PAYLOAD,2024-07-22 13:21:52,15.08838369,0.0001096,53.2182,50.8857,86.7355,273.3762,0.00021943,3.206e-05,0.0,0 STARLINK-3973,1 52645U 22052AZ  24204.55686061  .00003206  00000-0  21943-3 0  9995,2 52645  53.2182  50.8857 0001096  86.7355 273.3762 15.08838369121665,6917.885,95.438,540.509,538.992,0.0
52645.0,STARLINK-3973,PAYLOAD,2024-07-23 13:12:39,15.08840729,0.0001521,53.2153,46.427,73.0036,287.1123,0.00016697,2.37e-05,0.0,0 STARLINK-3973,1 52645U 22052AZ  24205.55046166  .00002370  00000-0  16697-3 0  9993,2 52645  53.2153  46.4270 0001521  73.0036 287.1123 15.08840729121433,6917.878,95.438,540.795,538.691,0.0
52645.0,STARLINK-3973,PAYLOAD,2024-07-24 22:35:45,15.08840227,0.000141,53.218,40.1827,74.6992,285.4156,2.65e-05,1.34e-06,0.0,0 STARLINK-3973,1 52645U 22052AZ  24206.94150411  .00000134  00000-0  26500-4 0  9997,2 52645  53.2180  40.1827 0001410  74.6992 285.4156 15.08840227121640,6917.88,95.438,540.72,538.769,0.0
52645.0,STARLINK-3973,PAYLOAD,2024-07-25 19:15:46,15.08842776,0.0001206,53.2166,36.3131,77.5989,282.5138,6.5487e-05,7.55e-06,0.0,0 STARLINK-3973,1 52645U 22052AZ  24207.80262141  .00000755  00000-0  65487-4 0  9993,2 52645  53.2166  36.3131 0001206  77.5989 282.5138 15.08842776121773,6917.872,95.437,540.571,538.903,0.0
52645.0,STARLINK-3973,PAYLOAD,2024-07-26 22:17:19,15.08847049,0.0001292,53.2173,31.2556,89.6602,270.4538,0.00014252,1.981e-05,0.0,0 STARLINK-3973,1 52645U 22052AZ  24208.92869647  .00001981  00000-0  14252-3 0  9996,2 52645  53.2173  31.2556 0001292  89.6602 270.4538 15.08847049121944,6917.859,95.437,540.618,538.83,0.0
52645.0,STARLINK-3973,PAYLOAD,2024-07-27 04:38:52,15.08843841,0.0002289,53.216,30.066,80.5063,279.6188,8.5345e-05,1.07e-05,0.0,0 STARLINK-3973,1 52645U 22052AZ  24209.19366277  .00001070  00000-0  85345-4 0  9998,2 52645  53.2160  30.0660 0002289  80.5063 279.6188 15.08843841122366,6917.869,95.437,541.317,538.15,0.0
52645.0,STARLINK-3973,PAYLOAD,2024-07-27 12:35:48,15.0884065,0.0002305,53.2192,28.5807,83.0292,277.0962,3.275e-05,2.33e-06,0.0,0 STARLINK-3973,1 52645U 22052AZ  24209.52486687  .00000233  00000-0  32750-4 0  9995,2 52645  53.2192  28.5807 0002305  83.0292 277.0962 15.08840650122410,6917.878,95.438,541.338,538.149,0.0
52645.0,STARLINK-3973,PAYLOAD,2024-07-27 20:32:44,15.08830865,0.0001706,53.2173,27.0927,81.4542,278.6643,-3.9251e-05,-9.13e-06,0.0,0 STARLINK-3973,1 52645U 22052AZ  24209.85607540 -.00000913  00000-0 -39251-4 0  9994,2 52645  53.2173  27.0927 0001706  81.4542 278.6643 15.08830865122083,6917.908,95.438,540.954,538.593,0.0
52645.0,STARLINK-3973,PAYLOAD,2024-07-28 10:51:12,15.08845697,0.0001496,53.2185,24.4169,82.8397,277.2765,-2.6651e-05,-7.12e-06,0.0,0 STARLINK-3973,1 52645U 22052AZ  24210.45222815 -.00000712  00000-0 -26651-4 0  9997,2 52645  53.2185  24.4169 0001496  82.8397 277.2765 15.08845697122555,6917.863,95.437,540.763,538.693,0.0
52645.0,STARLINK-3973,PAYLOAD,2024-07-28 17:12:44,15.08849295,0.0001372,53.2179,23.2292,107.7729,252.3413,-2.5617e-05,-6.96e-06,0.0,0 STARLINK-3973,1 52645U 22052AZ  24210.71717997 -.00000696  00000-0 -25617-4 0  9998,2 52645  53.2179  23.2292 0001372 107.7729 252.3413 15.08849295122216,6917.852,95.437,540.666,538.768,0.0
52645.0,STARLINK-3973,PAYLOAD,2024-07-29 04:20:26,15.08852816,0.0001111,53.217,21.1484,81.342,278.7698,9.7509e-05,1.265e-05,0.0,0 STARLINK-3973,1 52645U 22052AZ  24211.18085778  .00001265  00000-0  97509-4 0  9995,2 52645  53.2170  21.1484 0001111  81.3420 278.7698 15.08852816122662,6917.841,95.437,540.475,538.938,0.0
52645.0,STARLINK-3973,PAYLOAD,2024-07-29 20:14:18,15.08841595,0.0001399,53.2176,18.1729,81.1995,278.9156,0.00012984,1.779e-05,0.0,0 STARLINK-3973,1 52645U 22052AZ  24211.84326539  .00001779  00000-0  12984-3 0  9994,2 52645  53.2176  18.1729 0001399  81.1995 278.9156 15.08841595122763,6917.876,95.437,540.708,538.773,0.0
52645.0,STARLINK-3973,PAYLOAD,2024-07-30 04:11:14,15.08836691,0.0001139,53.2178,16.6872,84.3693,275.7429,7.7719e-05,9.49e-06,0.0,0 STARLINK-3973,1 52645U 22052AZ  24212.17446764  .00000949  00000-0  77719-4 0  9990,2 52645  53.2178  16.6872 0001139  84.3693 275.7429 15.08836691122432,6917.891,95.438,540.543,538.968,0.0
52645.0,STARLINK-3973,PAYLOAD,2024-07-30 20:05:05,15.08843684,0.0001267,53.2178,13.7103,90.9474,269.1663,0.00015074,2.112e-05,0.0,0 STARLINK-3973,1 52645U 22052AZ  24212.83686532  .00002112  00000-0  15074-3 0  9991,2 52645  53.2178  13.7103 0001267  90.9474 269.1663 15.08843684122537,6917.869,95.437,540.611,538.858,0.0
52645.0,STARLINK-3973,PAYLOAD,2024-07-31 04:02:00,15.08842438,9.8e-06,53.2169,12.2291,267.5236,92.5744,2.451e-05,1.03e-06,0.0,0 STARLINK-3973,1 52645U 22052AZ  24213.16806012  .00000103  00000-0  24510-4 0  9999,2 52645  53.2169  12.2291 0000098 267.5236  92.5744 15.08842438122969,6917.873,95.437,539.806,539.67,0.0
52645.0,STARLINK-3973,PAYLOAD,2024-07-31 16:45:06,15.08830219,0.0001137,53.2137,9.851,82.7898,277.3224,-5.7484e-06,-3.79e-06,0.0,0 STARLINK-3973,1 52645U 22052AZ  24213.69799440 -.00000379  00000-0 -57484-5 0  9997,2 52645  53.2137   9.8510 0001137  82.7898 277.3224 15.08830219123046,6917.91,95.438,540.562,538.989,0.0
52645.0,STARLINK-3973,PAYLOAD,2024-08-01 03:52:47,15.08850126,0.0001309,53.2192,7.7639,94.0157,266.0985,4.7109e-05,4.62e-06,0.0,0 STARLINK-3973,1 52645U 22052AZ  24214.16166400  .00000462  00000-0  47109-4 0  9997,2 52645  53.2192   7.7639 0001309  94.0157 266.0985 15.08850126123117,6917.849,95.437,540.62,538.809,0.0
52645.0,STARLINK-3973,PAYLOAD,2024-08-01 10:14:20,15.08849974,0.0001123,53.218,6.5742,100.0208,260.0911,0.00010515,1.386e-05,0.0,0 STARLINK-3973,1 52645U 22052AZ  24214.42662452  .00001386  00000-0  10515-3 0  9990,2 52645  53.2180   6.5742 0001123 100.0208 260.0911 15.08849974122778,6917.85,95.437,540.492,538.938,0.0
